0 CZ-4C DEB
1 39231U 13037H   13282.85280137  .00001000  00000-0  43937-3 0   173
2 39231 098.0799 292.1563 0262711 325.0675 033.3467 14.08800124  6434
0 CZ-4C DEB
1 39231U 13037H   13287.25609775  .00001020  00000-0  44817-3 0   197
2 39231 098.0809 296.1139 0262463 312.2674 045.6492 14.08809370  7055
0 CZ-4C DEB
1 39231U 13037H   13290.23897104  .00001114  00000-0  48801-3 0   207
2 39231 098.0806 298.7923 0262175 303.7013 053.9437 14.08816656  7475
0 CZ-4C DEB
1 39231U 13037H   13292.29856853  .00001243  00000-0  54267-3 0   218
2 39231 098.0804 300.6421 0261827 297.7736 059.7126 14.08822746  7764
0 CZ-4C DEB
1 39231U 13037H   13295.21040552  .00001383  00000-0  60153-3 0   221
2 39231 098.0797 303.2558 0261868 289.3636 067.9380 14.08832162  8178
